OBJECT_NAME,OBJECT_ID,EPOCH,MEAN_MOTION,ECCENTRICITY,INCLINATION,RA_OF_ASC_NODE,ARG_OF_PERICENTER,MEAN_ANOMALY,EPHEMERIS_TYPE,CLASSIFICATION_TYPE,NORAD_CAT_ID,ELEMENT_SET_NO,REV_AT_EPOCH,BSTAR,MEAN_MOTION_DOT,MEAN_MOTION_DDOT
STARLINK-37491,2026-111U,2026-06-06T06:00:02.000160,15.78032315,.00008701,53.1593,206.3772,98.1912,192.9844,0,U,69166,999,378,-.8318613E-4,-.1507E-3,0
STARLINK-37474,2026-111V,2026-06-06T06:00:02.000160,15.78026947,.00008965,53.1595,206.3472,93.2741,212.4225,0,U,69167,999,378,-.21241474E-4,-.4349E-4,0
STARLINK-37469,2026-111W,2026-06-06T06:00:02.000160,15.77360824,.0000793,53.1593,206.3166,69.3034,251.2624,0,U,69168,999,378,-.16973947E-1,-.2451201E-1,0
STARLINK-37515,2026-111X,2026-06-06T06:00:02.000160,15.78013768,.00014459,53.1597,206.3278,91.7154,223.3000,0,U,69169,999,378,.159828E-3,.27119E-3,0
STARLINK-37437,2026-111Y,2026-06-06T00:00:02.999808,15.80921023,.00010204,53.1584,207.5454,89.1311,259.1749,0,U,69170,999,374,-.54573092E-3,-.107317E-2,0
STARLINK-37392,2026-111Z,2026-06-06T00:00:02.999808,15.80180237,.00005802,53.1590,207.4977,115.8313,255.2446,0,U,69171,999,374,-.14097747E-1,-.2335403E-1,0
STARLINK-37472,2026-111AA,2026-06-06T06:00:02.000160,15.80853784,.00010838,53.1586,206.2363,69.4220,289.6298,0,U,69172,999,378,-.13403296E-3,-.27046E-3,0
STARLINK-37461,2026-111AB,2026-06-06T00:00:02.999808,15.79111324,.00008538,53.1590,207.5371,81.4834,270.5775,0,U,69173,999,374,-.15094071E-1,-.2373954E-1,0
STARLINK-37333,2026-111AC,2026-06-06T06:00:02.000160,15.78046140,.00011742,53.1591,206.3086,115.1025,209.0907,0,U,69174,999,378,-.24175685E-3,-.42419E-3,0
STARLINK-37385,2026-111AD,2026-06-06T00:00:02.999808,15.79561331,.00003023,53.1586,207.5235,65.2164,293.4565,0,U,69175,999,374,-.14437137E-1,-.2325356E-1,0
STARLINK-37414,2026-111AE,2026-06-06T06:00:02.000160,15.78180775,.00014498,53.1591,206.2574,94.3061,254.6262,0,U,69176,999,378,-.14058571E-2,-.23942E-2,0
STRIX-7,2026-112A,2026-06-05T23:51:54.242784,15.01373817,.00243111,44.9067,251.2343,344.1249,15.8858,0,U,69177,999,219,.40783257E-3,.514E-4,0
SHENZHOU-23 (SZ-23),2026-113A,2026-06-06T02:20:47.373792,15.60328974,.00093572,41.4693,29.4663,351.5849,8.4832,0,U,69180,999,29125,.34273941E-3,.28689E-3,0
STARLINK-37380,2026-114A,2026-06-06T06:00:02.000160,15.78053488,.00010581,53.1595,257.0932,104.8345,181.7279,0,U,69182,999,305,-.14993225E-3,-.26617E-3,0
STARLINK-37089,2026-114B,2026-06-06T06:00:02.000160,15.78045020,.00006555,53.1593,257.0822,71.2182,220.6479,0,U,69183,999,305,-.59657162E-4,-.11007E-3,0
STARLINK-37428,2026-114C,2026-06-06T06:00:02.000160,15.78012824,.0000705,53.1591,257.0662,104.0169,195.8481,0,U,69184,999,305,.22791985E-3,.39011E-3,0
STARLINK-37237,2026-114D,2026-06-06T06:00:02.000160,15.78034955,.00011975,53.1591,257.0334,57.7105,257.7774,0,U,69185,999,305,.31465368E-3,.54263E-3,0
STARLINK-37365,2026-114E,2026-06-06T06:00:02.000160,15.77989610,.00011482,53.1592,257.0369,91.6033,222.1322,0,U,69186,999,305,.67188258E-3,.117256E-2,0
STARLINK-37209,2026-114F,2026-06-06T06:00:02.000160,15.78007887,.00011817,53.1591,257.0282,78.4119,239.7107,0,U,69187,999,305,.49783504E-3,.86465E-3,0
STARLINK-37359,2026-114G,2026-06-06T06:00:02.000160,15.78018554,.00005339,53.1591,257.0231,81.2759,239.3510,0,U,69188,999,305,.31521149E-3,.5432E-3,0
STARLINK-37440,2026-114H,2026-06-06T06:00:02.000160,15.85626641,.00010652,53.1563,256.6704,73.0403,57.3985,0,U,69189,999,305,-.67035331E-2,-.146923E-1,0
STARLINK-37282,2026-114J,2026-06-06T06:00:02.000160,15.80852201,.00010905,53.1588,256.9876,105.2645,232.3229,0,U,69190,999,305,-.18382944E-3,-.36791E-3,0
STARLINK-37422,2026-114K,2026-06-06T06:00:02.000160,15.80724057,.00010598,53.1590,256.9677,103.7725,243.6207,0,U,69191,999,305,.11609907E-2,.23313E-2,0
STARLINK-37424,2026-114L,2026-06-06T06:00:02.000160,15.80831129,.00009362,53.1588,256.9792,127.2106,214.6481,0,U,69192,999,305,.79085385E-4,.14907E-3,0
STARLINK-36666,2026-114M,2026-06-06T06:00:02.000160,15.80815078,.00012017,53.1588,256.9704,82.1158,264.0092,0,U,69193,999,305,.19452759E-3,.3776E-3,0
STARLINK-37355,2026-114N,2026-06-06T06:00:02.000160,15.80855601,.00009604,53.1587,256.9620,113.8432,236.5517,0,U,69194,999,305,-.23470915E-3,-.46735E-3,0
STARLINK-37166,2026-114P,2026-06-06T06:00:02.000160,15.80882196,.00007523,53.1590,256.9438,91.3287,267.5791,0,U,69195,999,305,-.23887496E-3,-.47603E-3,0
