STARLINK-37491          
1 69166U 26111U   26157.25002315 -.00015070  00000+0 -83186-4 0  9992
2 69166  53.1593 206.3772 0000870  98.1912 192.9844 15.78032315  3788
STARLINK-37474          
1 69167U 26111V   26157.25002315 -.00004349  00000+0 -21241-4 0  9994
2 69167  53.1595 206.3472 0000896  93.2741 212.4225 15.78026947  3787
STARLINK-37469          
1 69168U 26111W   26157.25002315 -.02451201  00000+0 -16974-1 0  9994
2 69168  53.1593 206.3166 0000793  69.3034 251.2624 15.77360824  3789
STARLINK-37515          
1 69169U 26111X   26157.25002315  .00027119  00000+0  15983-3 0  9999
2 69169  53.1597 206.3278 0001445  91.7154 223.3000 15.78013768  3786
STARLINK-37437          
1 69170U 26111Y   26157.00003472 -.00107317  00000+0 -54573-3 0  9998
2 69170  53.1584 207.5454 0001020  89.1311 259.1749 15.80921023  3746
STARLINK-37392          
1 69171U 26111Z   26157.00003472 -.02335403  00000+0 -14098-1 0  9996
2 69171  53.1590 207.4977 0000580 115.8313 255.2446 15.80180237  3747
STARLINK-37472          
1 69172U 26111AA  26157.25002315 -.00027046  00000+0 -13403-3 0  9999
2 69172  53.1586 206.2363 0001083  69.4220 289.6298 15.80853784  3783
STARLINK-37461          
1 69173U 26111AB  26157.00003472 -.02373954  00000+0 -15094-1 0  9998
2 69173  53.1590 207.5371 0000853  81.4834 270.5775 15.79111324  3741
STARLINK-37333          
1 69174U 26111AC  26157.25002315 -.00042419  00000+0 -24176-3 0  9991
2 69174  53.1591 206.3086 0001174 115.1025 209.0907 15.78046140  3787
STARLINK-37385          
1 69175U 26111AD  26157.00003472 -.02325356  00000+0 -14437-1 0  9993
2 69175  53.1586 207.5235 0000302  65.2164 293.4565 15.79561331  3740
STARLINK-37414          
1 69176U 26111AE  26157.25002315 -.00239420  00000+0 -14059-2 0  9991
2 69176  53.1591 206.2574 0001449  94.3061 254.6262 15.78180775  3786
STRIX-7                 
1 69177U 26112A   26156.99437781  .00005140  00000+0  40783-3 0  9994
2 69177  44.9067 251.2343 0024311 344.1249  15.8858 15.01373817  2193
SHENZHOU-23 (SZ-23)     
1 69180U 26113A   26157.09777053  .00028689  00000+0  34274-3 0  9991
2 69180  41.4693  29.4663 0009357 351.5849   8.4832 15.60328974291251
STARLINK-37380          
1 69182U 26114A   26157.25002315 -.00026617  00000+0 -14993-3 0  9991
2 69182  53.1595 257.0932 0001058 104.8345 181.7279 15.78053488  3055
STARLINK-37089          
1 69183U 26114B   26157.25002315 -.00011007  00000+0 -59657-4 0  9996
2 69183  53.1593 257.0822 0000655  71.2182 220.6479 15.78045020  3058
STARLINK-37428          
1 69184U 26114C   26157.25002315  .00039011  00000+0  22792-3 0  9999
2 69184  53.1591 257.0662 0000705 104.0169 195.8481 15.78012824  3057
STARLINK-37237          
1 69185U 26114D   26157.25002315  .00054263  00000+0  31465-3 0  9993
2 69185  53.1591 257.0334 0001197  57.7105 257.7774 15.78034955  3056
STARLINK-37365          
1 69186U 26114E   26157.25002315  .00117256  00000+0  67188-3 0  9997
2 69186  53.1592 257.0369 0001148  91.6033 222.1322 15.77989610  3050
STARLINK-37209          
1 69187U 26114F   26157.25002315  .00086465  00000+0  49784-3 0  9997
2 69187  53.1591 257.0282 0001181  78.4119 239.7107 15.78007887  3052
STARLINK-37359          
1 69188U 26114G   26157.25002315  .00054320  00000+0  31521-3 0  9993
2 69188  53.1591 257.0231 0000533  81.2759 239.3510 15.78018554  3056
STARLINK-37440          
1 69189U 26114H   26157.25002315 -.01469230  00000+0 -67035-2 0  9995
2 69189  53.1563 256.6704 0001065  73.0403  57.3985 15.85626641  3056
STARLINK-37282          
1 69190U 26114J   26157.25002315 -.00036791  00000+0 -18383-3 0  9991
2 69190  53.1588 256.9876 0001090 105.2645 232.3229 15.80852201  3056
STARLINK-37422          
1 69191U 26114K   26157.25002315  .00233130  00000+0  11610-2 0  9991
2 69191  53.1590 256.9677 0001059 103.7725 243.6207 15.80724057  3054
STARLINK-37424          
1 69192U 26114L   26157.25002315  .00014907  00000+0  79085-4 0  9993
2 69192  53.1588 256.9792 0000936 127.2106 214.6481 15.80831129  3058
STARLINK-36666          
1 69193U 26114M   26157.25002315  .00037760  00000+0  19453-3 0  9998
2 69193  53.1588 256.9704 0001201  82.1158 264.0092 15.80815078  3056
STARLINK-37355          
1 69194U 26114N   26157.25002315 -.00046735  00000+0 -23471-3 0  9998
2 69194  53.1587 256.9620 0000960 113.8432 236.5517 15.80855601  3053
STARLINK-37166          
1 69195U 26114P   26157.25002315 -.00047603  00000+0 -23887-3 0  9995
2 69195  53.1590 256.9438 0000752  91.3287 267.5791 15.80882196  3059
